GLOBALSTAR M069         
1 31573U 07020C   26117.03823385 -.00000115  00000+0 -20379-3 0  9999
2 31573  52.0055  36.8950 0002368  46.0383 327.5937 12.23469809872548
GLOBALSTAR M072         
1 31574U 07020D   26117.29373925 -.00000092  00000+0 -11283-3 0  9996
2 31574  51.9926 235.7382 0001487 186.8581 187.9783 11.91657347868910
GLOBALSTAR M066         
1 32265U 07048C   26117.38788373 -.00000111  00000+0 -14282-3 0  9995
2 32265  51.9581 203.7438 0004312 292.3620 144.9696 12.30387816853970
GLOBALSTAR M079         
1 37188U 10054A   26117.37019918 -.00000098  00000+0  32458-4 0  9995
2 37188  52.0041 263.3645 0000559 135.2225 244.9155 12.62265161716139
GLOBALSTAR M074         
1 37189U 10054B   26116.87308110 -.00000105  00000+0 -62455-5 0  9996
2 37189  52.0015 264.1512 0000647 104.6529  55.1678 12.62267580716676
GLOBALSTAR M076         
1 37190U 10054C   26117.34208877 -.00000090  00000+0  78655-4 0  9990
2 37190  52.0031 262.9208 0000416 103.1058 269.8588 12.62272403716459
GLOBALSTAR M077         
1 37191U 10054D   26117.29502328 -.00000079  00000+0 -22134-4 0  9992
2 37191  51.9972 308.4688 0003312  83.7349  87.4401 11.67547500715199
GLOBALSTAR M075         
1 37192U 10054E   26117.23178689 -.00000080  00000+0  13184-3 0  9991
2 37192  51.9954 305.3413 0000823 101.2299  69.5400 12.62266183715502
GLOBALSTAR M073         
1 37193U 10054F   26117.44927735 -.00000111  00000+0 -42892-4 0  9994
2 37193  52.0058 218.7392 0000351 152.8500 285.7114 12.62266493717528
GLOBALSTAR M083         
1 37739U 11033A   26117.44792795 -.00000090  00000+0  74308-4 0  9996
2 37739  51.9835 167.0411 0000216 190.5218 183.5250 12.62262811686541
GLOBALSTAR M088         
1 37740U 11033B   26117.29690008 -.00000104  00000+0  64634-6 0  9994
2 37740  52.0214  73.8036 0000472  56.2466 109.1180 12.62263120682063
GLOBALSTAR M091         
1 37741U 11033C   26117.54870803 -.00000103  00000+0  46306-5 0  9990
2 37741  52.0018  36.0771 0000554  82.8696  88.7436 12.62262812682887
GLOBALSTAR M085         
1 37742U 11033D   26117.37704318 -.00000083  00000+0  11715-3 0  9990
2 37742  52.0146 347.8497 0000704 101.1181  70.2338 12.62262893683370
GLOBALSTAR M081         
1 37743U 11033E   26117.40351625 -.00000081  00000+0  12484-3 0  9996
2 37743  51.9983 350.2639 0000655  81.6390  89.3546 12.62263703683523
GLOBALSTAR M089         
1 37744U 11033F   26117.28459924 -.00000081  00000+0  12930-3 0  9990
2 37744  51.9936 304.7953 0000830  77.9703  92.8193 12.62266001684359
GLOBALSTAR M084         
1 38040U 11080A   26117.42142044 -.00000086  00000+0  10097-3 0  9997
2 38040  51.9991 171.8322 0000203  60.3388 312.4078 12.62266705662352
GLOBALSTAR M080         
1 38041U 11080B   26117.47226170 -.00000088  00000+0  90615-4 0  9993
2 38041  52.0041 173.3783 0000721 143.6916 229.9552 12.62268541662489
