[{"OBJECT_NAME":"GLOBALSTAR M069","OBJECT_ID":"2007-020C","EPOCH":"2026-04-27T00:55:03.404640","MEAN_MOTION":12.23469809,"ECCENTRICITY":0.00023688,"INCLINATION":52.0055,"RA_OF_ASC_NODE":36.895,"ARG_OF_PERICENTER":46.0383,"MEAN_ANOMALY":327.5937,"EPHEMERIS_TYPE":0,"CLASSIFICATION_TYPE":"U","NORAD_CAT_ID":31573,"ELEMENT_SET_NO":999,"REV_AT_EPOCH":87254,"BSTAR":-0.00020378732,"MEAN_MOTION_DOT":-1.15e-6,"MEAN_MOTION_DDOT":0},{"OBJECT_NAME":"GLOBALSTAR M072","OBJECT_ID":"2007-020D","EPOCH":"2026-04-27T07:02:59.071200","MEAN_MOTION":11.91657347,"ECCENTRICITY":0.0001487,"INCLINATION":51.9926,"RA_OF_ASC_NODE":235.7382,"ARG_OF_PERICENTER":186.8581,"MEAN_ANOMALY":187.9783,"EPHEMERIS_TYPE":0,"CLASSIFICATION_TYPE":"U","NORAD_CAT_ID":31574,"ELEMENT_SET_NO":999,"REV_AT_EPOCH":86891,"BSTAR":-0.00011283,"MEAN_MOTION_DOT":-9.2e-7,"MEAN_MOTION_DDOT":0},{"OBJECT_NAME":"GLOBALSTAR M066","OBJECT_ID":"2007-048C","EPOCH":"2026-04-27T09:18:33.154272","MEAN_MOTION":12.30387816,"ECCENTRICITY":0.0004312,"INCLINATION":51.9581,"RA_OF_ASC_NODE":203.7438,"ARG_OF_PERICENTER":292.362,"MEAN_ANOMALY":144.9696,"EPHEMERIS_TYPE":0,"CLASSIFICATION_TYPE":"U","NORAD_CAT_ID":32265,"ELEMENT_SET_NO":999,"REV_AT_EPOCH":85397,"BSTAR":-0.00014282,"MEAN_MOTION_DOT":-1.11e-6,"MEAN_MOTION_DDOT":0},{"OBJECT_NAME":"GLOBALSTAR M079","OBJECT_ID":"2010-054A","EPOCH":"2026-04-27T08:53:05.209152","MEAN_MOTION":12.62265161,"ECCENTRICITY":5.59e-5,"INCLINATION":52.0041,"RA_OF_ASC_NODE":263.3645,"ARG_OF_PERICENTER":135.2225,"MEAN_ANOMALY":244.9155,"EPHEMERIS_TYPE":0,"CLASSIFICATION_TYPE":"U","NORAD_CAT_ID":37188,"ELEMENT_SET_NO":999,"REV_AT_EPOCH":71613,"BSTAR":3.2458e-5,"MEAN_MOTION_DOT":-9.8e-7,"MEAN_MOTION_DDOT":0},{"OBJECT_NAME":"GLOBALSTAR M074","OBJECT_ID":"2010-054B","EPOCH":"2026-04-26T20:57:14.207040","MEAN_MOTION":12.6226758,"ECCENTRICITY":6.474e-5,"INCLINATION":52.0015,"RA_OF_ASC_NODE":264.1512,"ARG_OF_PERICENTER":104.6529,"MEAN_ANOMALY":55.1678,"EPHEMERIS_TYPE":0,"CLASSIFICATION_TYPE":"U","NORAD_CAT_ID":37189,"ELEMENT_SET_NO":999,"REV_AT_EPOCH":71667,"BSTAR":-6.245462e-6,"MEAN_MOTION_DOT":-1.05e-6,"MEAN_MOTION_DDOT":0},{"OBJECT_NAME":"GLOBALSTAR M076","OBJECT_ID":"2010-054C","EPOCH":"2026-04-27T08:12:36.469728","MEAN_MOTION":12.62272403,"ECCENTRICITY":4.16e-5,"INCLINATION":52.0031,"RA_OF_ASC_NODE":262.9208,"ARG_OF_PERICENTER":103.1058,"MEAN_ANOMALY":269.8588,"EPHEMERIS_TYPE":0,"CLASSIFICATION_TYPE":"U","NORAD_CAT_ID":37190,"ELEMENT_SET_NO":999,"REV_AT_EPOCH":71645,"BSTAR":7.8655e-5,"MEAN_MOTION_DOT":-9.0e-7,"MEAN_MOTION_DDOT":0},{"OBJECT_NAME":"GLOBALSTAR M077","OBJECT_ID":"2010-054D","EPOCH":"2026-04-27T07:04:50.011392","MEAN_MOTION":11.675475,"ECCENTRICITY":0.0003312,"INCLINATION":51.9972,"RA_OF_ASC_NODE":308.4688,"ARG_OF_PERICENTER":83.7349,"MEAN_ANOMALY":87.4401,"EPHEMERIS_TYPE":0,"CLASSIFICATION_TYPE":"U","NORAD_CAT_ID":37191,"ELEMENT_SET_NO":999,"REV_AT_EPOCH":71519,"BSTAR":-2.2134e-5,"MEAN_MOTION_DOT":-7.9e-7,"MEAN_MOTION_DDOT":0},{"OBJECT_NAME":"GLOBALSTAR M075","OBJECT_ID":"2010-054E","EPOCH":"2026-04-27T05:33:46.387296","MEAN_MOTION":12.62266183,"ECCENTRICITY":8.234e-5,"INCLINATION":51.9954,"RA_OF_ASC_NODE":305.3413,"ARG_OF_PERICENTER":101.2299,"MEAN_ANOMALY":69.54,"EPHEMERIS_TYPE":0,"CLASSIFICATION_TYPE":"U","NORAD_CAT_ID":37192,"ELEMENT_SET_NO":999,"REV_AT_EPOCH":71550,"BSTAR":0.00013184164,"MEAN_MOTION_DOT":-8.0e-7,"MEAN_MOTION_DDOT":0},{"OBJECT_NAME":"GLOBALSTAR M073","OBJECT_ID":"2010-054F","EPOCH":"2026-04-27T10:46:57.563040","MEAN_MOTION":12.62266493,"ECCENTRICITY":3.51e-5,"INCLINATION":52.0058,"RA_OF_ASC_NODE":218.7392,"ARG_OF_PERICENTER":152.85,"MEAN_ANOMALY":285.7114,"EPHEMERIS_TYPE":0,"CLASSIFICATION_TYPE":"U","NORAD_CAT_ID":37193,"ELEMENT_SET_NO":999,"REV_AT_EPOCH":71752,"BSTAR":-4.2892e-5,"MEAN_MOTION_DOT":-1.11e-6,"MEAN_MOTION_DDOT":0},{"OBJECT_NAME":"GLOBALSTAR M083","OBJECT_ID":"2011-033A","EPOCH":"2026-04-27T10:45:00.974880","MEAN_MOTION":12.62262811,"ECCENTRICITY":2.16e-5,"INCLINATION":51.9835,"RA_OF_ASC_NODE":167.0411,"ARG_OF_PERICENTER":190.5218,"MEAN_ANOMALY":183.525,"EPHEMERIS_TYPE":0,"CLASSIFICATION_TYPE":"U","NORAD_CAT_ID":37739,"ELEMENT_SET_NO":999,"REV_AT_EPOCH":68654,"BSTAR":7.4308e-5,"MEAN_MOTION_DOT":-9.0e-7,"MEAN_MOTION_DDOT":0},{"OBJECT_NAME":"GLOBALSTAR M088","OBJECT_ID":"2011-033B","EPOCH":"2026-04-27T07:07:32.166912","MEAN_MOTION":12.6226312,"ECCENTRICITY":4.72e-5,"INCLINATION":52.0214,"RA_OF_ASC_NODE":73.8036,"ARG_OF_PERICENTER":56.2466,"MEAN_ANOMALY":109.118,"EPHEMERIS_TYPE":0,"CLASSIFICATION_TYPE":"U","NORAD_CAT_ID":37740,"ELEMENT_SET_NO":999,"REV_AT_EPOCH":68206,"BSTAR":6.4634e-7,"MEAN_MOTION_DOT":-1.04e-6,"MEAN_MOTION_DDOT":0},{"OBJECT_NAME":"GLOBALSTAR M091","OBJECT_ID":"2011-033C","EPOCH":"2026-04-27T13:10:08.373792","MEAN_MOTION":12.62262812,"ECCENTRICITY":5.54e-5,"INCLINATION":52.0018,"RA_OF_ASC_NODE":36.0771,"ARG_OF_PERICENTER":82.8696,"MEAN_ANOMALY":88.7436,"EPHEMERIS_TYPE":0,"CLASSIFICATION_TYPE":"U","NORAD_CAT_ID":37741,"ELEMENT_SET_NO":999,"REV_AT_EPOCH":68288,"BSTAR":4.6306e-6,"MEAN_MOTION_DOT":-1.03e-6,"MEAN_MOTION_DDOT":0},{"OBJECT_NAME":"GLOBALSTAR M085","OBJECT_ID":"2011-033D","EPOCH":"2026-04-27T09:02:56.530752","MEAN_MOTION":12.62262893,"ECCENTRICITY":7.04e-5,"INCLINATION":52.0146,"RA_OF_ASC_NODE":347.8497,"ARG_OF_PERICENTER":101.1181,"MEAN_ANOMALY":70.2338,"EPHEMERIS_TYPE":0,"CLASSIFICATION_TYPE":"U","NORAD_CAT_ID":37742,"ELEMENT_SET_NO":999,"REV_AT_EPOCH":68337,"BSTAR":0.00011715,"MEAN_MOTION_DOT":-8.3e-7,"MEAN_MOTION_DDOT":0},{"OBJECT_NAME":"GLOBALSTAR M081","OBJECT_ID":"2011-033E","EPOCH":"2026-04-27T09:41:03.804000","MEAN_MOTION":12.62263703,"ECCENTRICITY":6.55e-5,"INCLINATION":51.9983,"RA_OF_ASC_NODE":350.2639,"ARG_OF_PERICENTER":81.639,"MEAN_ANOMALY":89.3546,"EPHEMERIS_TYPE":0,"CLASSIFICATION_TYPE":"U","NORAD_CAT_ID":37743,"ELEMENT_SET_NO":999,"REV_AT_EPOCH":68352,"BSTAR":0.00012484,"MEAN_MOTION_DOT":-8.1e-7,"MEAN_MOTION_DDOT":0},{"OBJECT_NAME":"GLOBALSTAR M089","OBJECT_ID":"2011-033F","EPOCH":"2026-04-27T06:49:49.374336","MEAN_MOTION":12.62266001,"ECCENTRICITY":8.3e-5,"INCLINATION":51.9936,"RA_OF_ASC_NODE":304.7953,"ARG_OF_PERICENTER":77.9703,"MEAN_ANOMALY":92.8193,"EPHEMERIS_TYPE":0,"CLASSIFICATION_TYPE":"U","NORAD_CAT_ID":37744,"ELEMENT_SET_NO":999,"REV_AT_EPOCH":68435,"BSTAR":0.0001293,"MEAN_MOTION_DOT":-8.1e-7,"MEAN_MOTION_DDOT":0},{"OBJECT_NAME":"GLOBALSTAR M084","OBJECT_ID":"2011-080A","EPOCH":"2026-04-27T10:06:50.726016","MEAN_MOTION":12.62266705,"ECCENTRICITY":2.03e-5,"INCLINATION":51.9991,"RA_OF_ASC_NODE":171.8322,"ARG_OF_PERICENTER":60.3388,"MEAN_ANOMALY":312.4078,"EPHEMERIS_TYPE":0,"CLASSIFICATION_TYPE":"U","NORAD_CAT_ID":38040,"ELEMENT_SET_NO":999,"REV_AT_EPOCH":66235,"BSTAR":0.00010097,"MEAN_MOTION_DOT":-8.6e-7,"MEAN_MOTION_DDOT":0},{"OBJECT_NAME":"GLOBALSTAR M080","OBJECT_ID":"2011-080B","EPOCH":"2026-04-27T11:20:03.410880","MEAN_MOTION":12.62268541,"ECCENTRICITY":7.21e-5,"INCLINATION":52.0041,"RA_OF_ASC_NODE":173.3783,"ARG_OF_PERICENTER":143.6916,"MEAN_ANOMALY":229.9552,"EPHEMERIS_TYPE":0,"CLASSIFICATION_TYPE":"U","NORAD_CAT_ID":38041,"ELEMENT_SET_NO":999,"REV_AT_EPOCH":66248,"BSTAR":9.0615e-5,"MEAN_MOTION_DOT":-8.8e-7,"MEAN_MOTION_DDOT":0}]
